STARLINK-2245           
1 48589U 21041AN  26068.42638522  .00001590  00000+0  65782-4 0  9992
2 48589  53.1610 127.9568 0001348  87.2561 272.8594 15.30209458265237
SCS-01 D                
1 63985U 25100D   26068.75607686  .00032471  00000+0  10528-2 0  9990
2 63985  97.3730 145.4097 0006346 266.2302  93.8214 15.31902149 45621
